start=new Date('2021-10-05T00:00:00.000Z').valueOf();
sats=[{"APOAPSIS":"548.441","TIME_SYSTEM":"UTC","PERIAPSIS":"546.067","LAUNCH_DATE":"2021-04-29","ECCENTRICITY":"0.00017140","RCS_SIZE":"LARGE","SEMIMAJOR_AXIS":"6925.389","RA_OF_ASC_NODE":"161.9543","REF_FRAME":"TEME","ARG_OF_PERICENTER":"68.7609","MEAN_MOTION":"15.06386830","CLASSIFICATION_TYPE":"U","MEAN_MOTION_DDOT":"0.0000000000000","OBJECT_TYPE":"PAYLOAD","REV_AT_EPOCH":"2427","MEAN_ELEMENT_THEORY":"SGP4","NORAD_CAT_ID":"48335","PERIOD":"95.593","TLE_LINE2":"2 48335  53.0583 161.9543 0001714  68.7609 291.3563 15.06386830 24271","GP_ID":"186193439","MEAN_MOTION_DOT":"-0.00001712","EPOCH":"2021-10-04T09:22:46.529184","DECAY_DATE":null,"OBJECT_NAME":"STARLINK-2441","MEAN_ANOMALY":"291.3563","BSTAR":"-0.00009606500000","FILE":"3144407","COUNTRY_CODE":"US","OBJECT_ID":"2021-036BM","INCLINATION":"53.0583","SITE":"AFETR","EPHEMERIS_TYPE":"0","TLE_LINE1":"1 48335U 21036BM  21277.39081631 -.00001712  00000-0 -96065-4 0  9998","CENTER_NAME":"EARTH","ELEMENT_SET_NO":"999"},{"EPOCH":"2021-10-04T19:03:57.585600","MEAN_ANOMALY":"263.2650","OBJECT_NAME":"STARLINK-2613","DECAY_DATE":null,"FILE":"3144803","BSTAR":"-0.00000552160000","COUNTRY_CODE":"US","SITE":"AFETR","EPHEMERIS_TYPE":"0","OBJECT_ID":"2021-038A","INCLINATION":"53.0570","TLE_LINE1":"1 48353U 21038A   21277.79441650 -.00000364  00000-0 -55216-5 0  9991","CENTER_NAME":"EARTH","ELEMENT_SET_NO":"999","TIME_SYSTEM":"UTC","APOAPSIS":"548.591","PERIAPSIS":"545.840","LAUNCH_DATE":"2021-05-04","ECCENTRICITY":"0.00019860","RCS_SIZE":"LARGE","SEMIMAJOR_AXIS":"6925.351","MEAN_MOTION":"15.06399262","ARG_OF_PERICENTER":"96.8565","CLASSIFICATION_TYPE":"U","RA_OF_ASC_NODE":"60.1481","REF_FRAME":"TEME","OBJECT_TYPE":"PAYLOAD","MEAN_MOTION_DDOT":"0.0000000000000","MEAN_ELEMENT_THEORY":"SGP4","REV_AT_EPOCH":"2332","GP_ID":"186225645","MEAN_MOTION_DOT":"-0.00000364","NORAD_CAT_ID":"48353","TLE_LINE2":"2 48353  53.0570  60.1481 0001986  96.8565 263.2650 15.06399262 23325","PERIOD":"95.592"},{"PERIAPSIS":"545.752","LAUNCH_DATE":"2021-05-04","ECCENTRICITY":"0.00020940","TIME_SYSTEM":"UTC","APOAPSIS":"548.652","SEMIMAJOR_AXIS":"6925.337","RCS_SIZE":"LARGE","OBJECT_TYPE":"PAYLOAD","MEAN_MOTION_DDOT":"0.0000000000000","ARG_OF_PERICENTER":"100.6936","MEAN_MOTION":"15.06403703","CLASSIFICATION_TYPE":"U","RA_OF_ASC_NODE":"60.1511","REF_FRAME":"TEME","GP_ID":"186225897","MEAN_MOTION_DOT":"-0.00000784","NORAD_CAT_ID":"48354","TLE_LINE2":"2 48354  53.0558  60.1511 0002094 100.6936 259.4289 15.06403703 23324","PERIOD":"95.592","REV_AT_EPOCH":"2332","MEAN_ELEMENT_THEORY":"SGP4","MEAN_ANOMALY":"259.4289","OBJECT_NAME":"STARLINK-2674","DECAY_DATE":null,"EPOCH":"2021-10-04T18:58:38.920800","COUNTRY_CODE":"US","FILE":"3144803","BSTAR":"-0.00003373600000","TLE_LINE1":"1 48354U 21038B   21277.79072825 -.00000784  00000-0 -33736-4 0  9994","SITE":"AFETR","EPHEMERIS_TYPE":"0","OBJECT_ID":"2021-038B","INCLINATION":"53.0558","ELEMENT_SET_NO":"999","CENTER_NAME":"EARTH"},{"REV_AT_EPOCH":"2386","MEAN_ELEMENT_THEORY":"SGP4","NORAD_CAT_ID":"48355","PERIOD":"95.592","TLE_LINE2":"2 48355  53.0566  61.6621 0002050  83.9623 276.1600 15.06395857 23862","GP_ID":"186197987","MEAN_MOTION_DOT":"-0.00000385","RA_OF_ASC_NODE":"61.6621","REF_FRAME":"TEME","MEAN_MOTION":"15.06395857","ARG_OF_PERICENTER":"83.9623","CLASSIFICATION_TYPE":"U","MEAN_MOTION_DDOT":"0.0000000000000","OBJECT_TYPE":"PAYLOAD","RCS_SIZE":"LARGE","SEMIMAJOR_AXIS":"6925.361","APOAPSIS":"548.646","TIME_SYSTEM":"UTC","PERIAPSIS":"545.807","LAUNCH_DATE":"2021-05-04","ECCENTRICITY":"0.00020500","CENTER_NAME":"EARTH","ELEMENT_SET_NO":"999","OBJECT_ID":"2021-038C","INCLINATION":"53.0566","EPHEMERIS_TYPE":"0","SITE":"AFETR","TLE_LINE1":"1 48355U 21038C   21277.45531379 -.00000385  00000-0 -69454-5 0  9996","BSTAR":"-0.00000694540000","FILE":"3144547","COUNTRY_CODE":"US","EPOCH":"2021-10-04T10:55:39.111456","DECAY_DATE":null,"OBJECT_NAME":"STARLINK-2635","MEAN_ANOMALY":"276.1600"},{"ELEMENT_SET_NO":"999","CENTER_NAME":"EARTH","TLE_LINE1":"1 48356U 21038D   21277.45163420 -.00000052  00000-0  15402-4 0  9998","INCLINATION":"53.0677","OBJECT_ID":"2021-038D","EPHEMERIS_TYPE":"0","SITE":"AFETR","COUNTRY_CODE":"US","BSTAR":"0.00001540200000","FILE":"3144407","OBJECT_NAME":"STARLINK-2637","DECAY_DATE":null,"MEAN_ANOMALY":"290.4275","EPOCH":"2021-10-04T10:50:21.194880","PERIOD":"95.593","TLE_LINE2":"2 48356  53.0677  61.6085 0001360  69.6860 290.4275 15.06386805 23272","NORAD_CAT_ID":"48356","MEAN_MOTION_DOT":"-0.00000052","GP_ID":"186192189","MEAN_ELEMENT_THEORY":"SGP4","REV_AT_EPOCH":"2327","MEAN_MOTION_DDOT":"0.0000000000000","OBJECT_TYPE":"PAYLOAD","REF_FRAME":"TEME","RA_OF_ASC_NODE":"61.6085","CLASSIFICATION_TYPE":"U","ARG_OF_PERICENTER":"69.6860","MEAN_MOTION":"15.06386805","SEMIMAJOR_AXIS":"6925.389","RCS_SIZE":"LARGE","ECCENTRICITY":"0.00013600","LAUNCH_DATE":"2021-05-04","PERIAPSIS":"546.312","APOAPSIS":"548.196","TIME_SYSTEM":"UTC"},{"BSTAR":"-0.00001375500000","FILE":"3144803","COUNTRY_CODE":"US","EPOCH":"2021-10-04T18:42:44.933472","OBJECT_NAME":"STARLINK-2636","DECAY_DATE":null,"MEAN_ANOMALY":"263.2838","CENTER_NAME":"EARTH","ELEMENT_SET_NO":"999","INCLINATION":"53.0558","OBJECT_ID":"2021-038E","EPHEMERIS_TYPE":"0","SITE":"AFETR","TLE_LINE1":"1 48357U 21038E   21277.77968673 -.00000486  00000-0 -13755-4 0  9998","RCS_SIZE":"LARGE","SEMIMAJOR_AXIS":"6925.400","APOAPSIS":"548.672","TIME_SYSTEM":"UTC","ECCENTRICITY":"0.00020320","LAUNCH_DATE":"2021-05-04","PERIAPSIS":"545.857","REV_AT_EPOCH":"2332","MEAN_ELEMENT_THEORY":"SGP4","TLE_LINE2":"2 48357  53.0558  60.2007 0002032  96.8382 263.2838 15.06383377 23328","PERIOD":"95.593","NORAD_CAT_ID":"48357","MEAN_MOTION_DOT":"-0.00000486","GP_ID":"186225146","REF_FRAME":"TEME","RA_OF_ASC_NODE":"60.2007","CLASSIFICATION_TYPE":"U","ARG_OF_PERICENTER":"96.8382","MEAN_MOTION":"15.06383377","MEAN_MOTION_DDOT":"0.0000000000000","OBJECT_TYPE":"PAYLOAD"},{"ELEMENT_SET_NO":"999","CENTER_NAME":"EARTH","TLE_LINE1":"1 48358U 21038F   21277.77599998 -.00000038  00000-0  16348-4 0  9992","OBJECT_ID":"2021-038F","INCLINATION":"53.0529","EPHEMERIS_TYPE":"0","SITE":"AFETR","COUNTRY_CODE":"US","BSTAR":"0.00001634800000","FILE":"3144803","OBJECT_NAME":"STARLINK-2624","DECAY_DATE":null,"MEAN_ANOMALY":"264.6925","EPOCH":"2021-10-04T18:37:26.398272","NORAD_CAT_ID":"48358","TLE_LINE2":"2 48358  53.0529  60.2344 0001830  95.4273 264.6925 15.06392905 23318","PERIOD":"95.593","GP_ID":"186226397","MEAN_MOTION_DOT":"-0.00000038","MEAN_ELEMENT_THEORY":"SGP4","REV_AT_EPOCH":"2331","MEAN_MOTION_DDOT":"0.0000000000000","OBJECT_TYPE":"PAYLOAD","RA_OF_ASC_NODE":"60.2344","REF_FRAME":"TEME","ARG_OF_PERICENTER":"95.4273","MEAN_MOTION":"15.06392905","CLASSIFICATION_TYPE":"U","SEMIMAJOR_AXIS":"6925.370","RCS_SIZE":"LARGE","PERIAPSIS":"545.968","LAUNCH_DATE":"2021-05-04","ECCENTRICITY":"0.00018300","APOAPSIS":"548.503","TIME_SYSTEM":"UTC"},{"OBJECT_TYPE":"PAYLOAD","MEAN_MOTION_DDOT":"0.0000000000000","MEAN_MOTION":"15.06386337","ARG_OF_PERICENTER":"99.8483","CLASSIFICATION_TYPE":"U","RA_OF_ASC_NODE":"60.2318","REF_FRAME":"TEME","GP_ID":"186226148","MEAN_MOTION_DOT":"-0.00000871","NORAD_CAT_ID":"48359","TLE_LINE2":"2 48359  53.0562  60.2318 0001572  99.8483 260.2684 15.06386337 23317","PERIOD":"95.593","REV_AT_EPOCH":"2331","MEAN_ELEMENT_THEORY":"SGP4","ECCENTRICITY":"0.00015720","LAUNCH_DATE":"2021-05-04","PERIAPSIS":"546.167","TIME_SYSTEM":"UTC","APOAPSIS":"548.344","SEMIMAJOR_AXIS":"6925.390","RCS_SIZE":"LARGE","TLE_LINE1":"1 48359U 21038G   21277.77230987 -.00000871  00000-0 -39627-4 0  9994","SITE":"AFETR","EPHEMERIS_TYPE":"0","OBJECT_ID":"2021-038G","INCLINATION":"53.0562","ELEMENT_SET_NO":"999","CENTER_NAME":"EARTH","MEAN_ANOMALY":"260.2684","DECAY_DATE":null,"OBJECT_NAME":"STARLINK-2628","EPOCH":"2021-10-04T18:32:07.572768","COUNTRY_CODE":"US","FILE":"3144803","BSTAR":"-0.00003962700000"},{"REV_AT_EPOCH":"2332","MEAN_ELEMENT_THEORY":"SGP4","PERIOD":"95.593","TLE_LINE2":"2 48360  53.0535  59.9448 0001737  86.7187 273.4000 15.06393649 23320","NORAD_CAT_ID":"48360","MEAN_MOTION_DOT":"-0.00001877","GP_ID":"186226895","REF_FRAME":"TEME","RA_OF_ASC_NODE":"59.9448","CLASSIFICATION_TYPE":"U","MEAN_MOTION":"15.06393649","ARG_OF_PERICENTER":"86.7187","MEAN_MOTION_DDOT":"0.0000000000000","OBJECT_TYPE":"PAYLOAD","RCS_SIZE":"LARGE","SEMIMAJOR_AXIS":"6925.368","APOAPSIS":"548.436","TIME_SYSTEM":"UTC","LAUNCH_DATE":"2021-05-04","PERIAPSIS":"546.030","ECCENTRICITY":"0.00017370","CENTER_NAME":"EARTH","ELEMENT_SET_NO":"999","INCLINATION":"53.0535","OBJECT_ID":"2021-038H","SITE":"AFETR","EPHEMERIS_TYPE":"0","TLE_LINE1":"1 48360U 21038H   21277.83496395 -.00001877  00000-0 -10718-3 0  9996","BSTAR":"-0.00010718000000","FILE":"3144803","COUNTRY_CODE":"US","EPOCH":"2021-10-04T20:02:20.885280","OBJECT_NAME":"STARLINK-2622","DECAY_DATE":null,"MEAN_ANOMALY":"273.4000"},{"ELEMENT_SET_NO":"999","CENTER_NAME":"EARTH","TLE_LINE1":"1 48361U 21038J   21277.69857835  .00000120  00000-0  26945-4 0  9999","SITE":"AFETR","EPHEMERIS_TYPE":"0","OBJECT_ID":"2021-038J","INCLINATION":"53.0558","COUNTRY_CODE":"US","FILE":"3144803","BSTAR":"0.00002694500000","MEAN_ANOMALY":"255.3359","OBJECT_NAME":"STARLINK-2591","DECAY_DATE":null,"EPOCH":"2021-10-04T16:45:57.169440","GP_ID":"186226900","MEAN_MOTION_DOT":"0.00000120","NORAD_CAT_ID":"48361","PERIOD":"95.592","TLE_LINE2":"2 48361  53.0558  60.6444 0001334 104.7778 255.3359 15.06399926 23309","MEAN_ELEMENT_THEORY":"SGP4","REV_AT_EPOCH":"2330","OBJECT_TYPE":"PAYLOAD","MEAN_MOTION_DDOT":"0.0000000000000","MEAN_MOTION":"15.06399926","ARG_OF_PERICENTER":"104.7778","CLASSIFICATION_TYPE":"U","RA_OF_ASC_NODE":"60.6444","REF_FRAME":"TEME","SEMIMAJOR_AXIS":"6925.349","RCS_SIZE":"LARGE","LAUNCH_DATE":"2021-05-04","ECCENTRICITY":"0.00013340","PERIAPSIS":"546.290","TIME_SYSTEM":"UTC","APOAPSIS":"548.138"}];
